ONEWEB-0444             
1 51638U 22012S   24049.92427521 -.00000503  00000+0 -14761-2 0  9991
2 51638  87.8935 204.9880 0001738  96.0853 264.0472 13.10374375 98114
ONEWEB-0445             
1 51639U 22012T   24049.94541265  .00000518  00000+0  14488-2 0  9996
2 51639  87.8930 204.9610 0001306 108.2856 251.8413 13.10374679 98128
ONEWEB-0446             
1 51640U 22012U   24049.92265314 -.00000683  00000+0 -19942-2 0  9999
2 51640  87.8939 204.9791 0001220 101.3334 258.7931 13.10375347 98101
ONEWEB-0448             
1 51641U 22012V   24049.92753191 -.00000346  00000+0 -10266-2 0  9991
2 51641  87.8940 204.9794 0001743  98.0371 262.0954 13.10376081 98075
ONEWEB-0449             
1 51642U 22012W   24049.93241369 -.00000242  00000+0 -73025-3 0  9990
2 51642  87.8934 204.9802 0001678 109.1540 250.9769 13.10376820 98080
ONEWEB-0451             
1 51643U 22012X   24049.86225496  .00000083  00000+0  18192-3 0  9991
2 51643  87.9249 174.7821 0001892 105.0872 255.0469 13.17649051101812
